XM-3 (RHYTHM)           
1 28626U 05008A   25145.57072615 -.00000191  00000+0  00000+0 0  9997
2 28626   0.0077  53.1621 0002106 211.1934  98.1956  1.00269408 38737
INMARSAT 4-F1           
1 28628U 05009A   25145.69296164  .00000037  00000+0  00000+0 0  9998
2 28628   4.6698  42.1632 0002732  28.4164 240.4829  1.00271128 73784
DIRECTV 8               
1 28659U 05019A   25145.63563201  .00000009  00000+0  00000+0 0  9995
2 28659   0.0183 348.5549 0002685  76.3326 288.3588  1.00271493 73188
GALAXY 28 (G-28)        
1 28702U 05022A   25145.57020486 -.00000179  00000+0  00000+0 0  9993
2 28702   2.3005  83.7795 0001707   5.8092 270.3925  1.00272011 48092
THAICOM 4               
1 28786U 05028A   25145.67594885 -.00000355  00000+0  00000+0 0  9997
2 28786   0.0139 296.4048 0002452 140.1955 169.7473  1.00271952 72448
ANIK F1R                
1 28868U 05036A   25145.63797779 -.00000067  00000+0  00000+0 0  9990
2 28868   3.3185  81.4173 0003381 350.2249 294.2023  1.00270814 42560
SYRACUSE 3A             
1 28885U 05041B   25145.84865862  .00000136  00000+0  00000+0 0  9993
2 28885   3.6562  80.6752 0003142 336.1477 154.1651  1.00270339 71864
INMARSAT 4-F2           
1 28899U 05044A   25145.71988954 -.00000256  00000+0  00000+0 0  9999
2 28899   4.5953  43.4174 0002487  25.6204 217.1515  1.00270935 71633
METEOSAT-9 (MSG-2)      
1 28912U 05049B   25145.95260564  .00000127  00000+0  00000+0 0  9992
2 28912   8.4784  57.8550 0001558   0.2066 214.3271  1.00273596  3127
EUTELSAT 174A           
1 28924U 05052A   25145.62230306  .00000016  00000+0  00000+0 0  9991
2 28924   3.2371  81.3460 0006084 339.8265 220.2880  1.00271942 48447
ECHOSTAR 10             
1 28935U 06003A   25145.63736963 -.00000047  00000+0  00000+0 0  9996
2 28935   0.0301  39.3686 0001753   4.9962 318.3543  1.00271310 70575
SPAINSAT                
1 28945U 06007A   25145.40768839 -.00000208  00000+0  00000+0 0  9992
2 28945   0.0249 253.4682 0002143 182.5658 283.9989  1.00271021 70324
EUTELSAT HOTBIRD 13E    
1 28946U 06007B   25145.65604889 -.00000119  00000+0  00000+0 0  9995
2 28946   1.0929  90.3372 0006268 348.2335  25.0875  1.00270596 70448
JCSAT-5A                
1 29045U 06010A   25145.63725076 -.00000321  00000+0  00000+0 0  9995
2 29045   0.1075  91.0323 0002153   8.6192 145.2665  1.00269573 69883
ASTRA 1KR               
1 29055U 06012A   25145.06086228  .00000128  00000+0  00000+0 0  9998
2 29055   0.0349 299.7047 0000402 272.6759  71.5972  1.00269898 41820
EWS-G1 (GOES 13)        
1 29155U 06018A   25144.32197641 -.00000208  00000+0  00000+0 0  9995
2 29155   3.5204  81.1751 0062361 265.8735 337.2863  0.98806179 39401
GALAXY 16 (G-16)        
1 29236U 06023A   25145.63954163 -.00000119  00000+0  00000+0 0  9997
2 29236   0.0591 118.6829 0002465 310.0003 306.0057  1.00269840 69082
EUTELSAT HOTBIRD 13B    
1 29270U 06032A   25145.85840214  .00000163  00000+0  00000+0 0  9998
2 29270   0.6603  86.3066 0003812 331.7315 167.7773  1.00273837 43425
JCSAT-3A                
1 29272U 06033A   25145.74306554 -.00000338  00000+0  00000+0 0  9998
2 29272   0.0397  88.0393 0002448 356.2072 194.8307  1.00271065 43851
SYRACUSE 3B             
1 29273U 06033B   25145.89637487  .00000029  00000+0  00000+0 0  9993
2 29273   1.9077  85.0448 0003587 332.1514 152.5693  1.00273792 68792
KOREASAT 5 (MUGUNGWHA 5)
1 29349U 06034A   25145.70198985 -.00000351  00000+0  00000+0 0  9992
2 29349   0.7820  88.5806 0001649  18.2284 142.4949  1.00271317 37438
DIRECTV 9S              
1 29494U 06043A   25145.56777221 -.00000105  00000+0  00000+0 0  9990
2 29494   1.4197  85.6726 0002807 335.2474 285.6790  1.00271547 47499
OPTUS D1                
1 29495U 06043B   25145.71919551 -.00000177  00000+0  00000+0 0  9991
2 29495   2.0349  84.5314 0003491 335.5926 234.3172  1.00269512 68231
BADR-4                  
1 29526U 06051A   25145.85279816  .00000152  00000+0  00000+0 0  9995
2 29526   1.0045  85.1072 0004082 315.3772 176.4450  1.00269347 47382
WILDBLUE-1              
1 29643U 06054A   25145.63719587 -.00000041  00000+0  00000+0 0  9996
2 29643   1.8022  85.5327 0001323 331.1508 304.9877  1.00270942 49904
SKYNET 5A               
1 30794U 07007B   25145.99458002 -.00000266  00000+0  00000+0 0  9994
2 30794   4.3144  78.4443 0003696 348.2217 270.4020  1.00273626 66815
ANIK F3                 
1 31102U 07009A   25145.63563201  .00000007  00000+0  00000+0 0  9991
2 31102   0.1947  89.0823 0002218 335.2258 289.2682  1.00271066 42670
ASTRA 1L                
1 31306U 07016A   25145.98815199  .00000127  00000+0  00000+0 0  9992
2 31306   0.3232  80.3403 0002865 340.8817 197.7129  1.00270637 41103
GALAXY 17 (G-17)        
1 31307U 07016B   25145.57098678 -.00000198  00000+0  00000+0 0  9992
2 31307   1.9907  84.8784 0001874  60.7920 218.2888  1.00270371 65914
ZHONGXING-6B            
1 31800U 07031A   25145.78836662 -.00000352  00000+0  00000+0 0  9995
2 31800   1.3979  86.3492 0002964 342.5965 212.8914  1.00254382 65542
DIRECTV 10              
1 31862U 07032A   25145.56742469 -.00000095  00000+0  00000+0 0  9995
2 31862   0.0035 208.7990 0000223 115.3839  20.6919  1.00271944 41709
OPTUS D2                
1 32252U 07044A   25145.71364333 -.00000100  00000+0  00000+0 0  9996
2 32252   1.0715  86.9885 0003164 318.3072 255.4316  1.00272945 64682
INTELSAT 11 (IS-11)     
1 32253U 07044B   25145.85490363 -.00000001  00000+0  00000+0 0  9995
2 32253   2.5562  83.4812 0001846  54.1414  83.1713  0.99046433 64619
WGS F1 (USA 195)        
1 32258U 07046A   25145.65066231 -.00000259  00000+0  00000+0 0  9998
2 32258   0.0708  95.6269 0000443 239.1956 100.4007  1.00267614 48449
SKYNET 5B               
1 32294U 07056B   25145.85262071  .00000146  00000+0  00000+0 0  9995
2 32294   4.2673  78.1427 0003904 342.6000 154.9751  1.00270061 64317
ASTRA 4A                
1 32299U 07057A   25145.94573124  .00000039  00000+0  00000+0 0  9996
2 32299   0.0177 314.5244 0002671 104.1999 170.3131  1.00269650 47763
HORIZONS-2              
1 32388U 07063B   25145.57315880 -.00000245  00000+0  00000+0 0  9994
2 32388   1.6013  85.4884 0001820 347.2713 303.1939  1.00270542 63921
THURAYA-3               
1 32404U 08001A   25145.86135513 -.00000298  00000+0  00000+0 0  9999
2 32404   5.3592  34.7015 0001807  32.6556 224.9166  1.00270459 63605
THOR 5                  
1 32487U 08006A   25145.65908970 -.00000001  00000+0  00000+0 0  9999
2 32487   0.0248 264.2330 0002290 163.6334  52.1555  1.00272645 63435
AMC-14                  
1 32708U 08011A   25145.84512733  .00000063  00000+0  00000+0 0  9997
2 32708  23.5325  25.1801 0043143   4.4904 176.0120  1.00279250 64288
DIRECTV 11              
1 32729U 08013A   25145.86503233 -.00000118  00000+0  00000+0 0  9991
2 32729   0.0055  58.2824 0000669 252.2298 145.3952  1.00268748 63054
ICO G1                  
1 32763U 08016A   25145.64084484 -.00000168  00000+0  00000+0 0  9995
2 32763   5.4273  36.8308 0002426  14.8161 329.6702  1.00272732 62659
VINASAT-1               
1 32767U 08018A   25145.80736822 -.00000321  00000+0  00000+0 0  9990
2 32767   0.0113 327.6735 0001184  98.3821 240.1835  1.00271727 62705
STAR ONE C2             
1 32768U 08018B   25145.57489640 -.00000269  00000+0  00000+0 0  9999
2 32768   0.2534  82.7009 0002701 352.2062 310.4725  1.00271672 62767
AMOS-3                  
1 32794U 08022A   25145.65839466 -.00000028  00000+0  00000+0 0  9990
2 32794   0.0111  82.1855 0001025 288.0437 106.1291  1.00271449 78451
GALAXY 18 (G-18)        
1 32951U 08024A   25145.63485009  .00000033  00000+0  00000+0 0  9990
2 32951   0.0580  99.4809 0002926 325.6892 283.8228  1.00270658 41960
ZHONGXING-9             
1 33051U 08028A   25145.99196508 -.00000241  00000+0  00000+0 0  9990
2 33051   0.0193 328.0408 0003867 111.0771 253.9831  1.00271460 62150
SKYNET 5C               
1 33055U 08030A   25145.65570138 -.00000133  00000+0  00000+0 0  9995
2 33055   2.7942  81.6205 0005115 341.9696  38.1423  1.00269936 62076
TURKSAT 3A              
1 33056U 08030B   25145.86682280  .00000153  00000+0  00000+0 0  9992
2 33056   0.0823  87.3766 0005219 344.1674 166.1846  1.00272229 48475
INTELSAT 25 (IS-25)     
1 33153U 08034A   25145.65300808 -.00000216  00000+0  00000+0 0  9995
2 33153   1.7082  85.1499 0002834 343.7028  18.2253  1.00271824 61817
ECHOSTAR 11             
1 33207U 08035A   25145.63736963 -.00000049  00000+0  00000+0 0  9993
2 33207   0.0176 313.7823 0002481 116.8937 292.2501  1.00271675 47324
SUPERBIRD-C2            
1 33274U 08038A   25145.74905912 -.00000244  00000+0  00000+0 0  9991
2 33274   1.3611  86.2765 0000471 259.5609 311.3398  1.00270045101846
AMC-21                  
1 33275U 08038B   25145.63441569  .00000044  00000+0  00000+0 0  9990
2 33275   1.9461  85.2568 0002704 337.6496 284.0356  1.00271686 61600
INMARSAT 4-F3           
1 33278U 08039A   25145.63980227 -.00000135  00000+0  00000+0 0  9995
2 33278   3.9727  29.8134 0002744  35.9634 310.0159  1.00271549 42652
NIMIQ 4                 
1 33373U 08044A   25145.57159495 -.00000212  00000+0  00000+0 0  9991
2 33373   0.0058  24.2782 0002154  29.1762 313.7308  1.00271554 61094
GALAXY 19 (G-19)        
1 33376U 08045A   25145.63997603 -.00000131  00000+0  00000+0 0  9993
2 33376   0.0576 100.4459 0002499 322.4330 313.9767  1.00270704 61011
ASTRA 1M                
1 33436U 08057A   25145.98815293  .00000126  00000+0  00000+0 0  9998
2 33436   0.0210  17.3920 0004244  84.5677 156.7865  1.00269007 41858
EUTELSAT HOTBIRD 13C    
1 33459U 08065A   25145.65665706 -.00000093  00000+0  00000+0 0  9992
2 33459   1.9529  83.7703 0003537 327.7844  55.8233  1.00271179 43464
EXPRESS-AM44            
1 33595U 09007A   25145.65700457 -.00000082  00000+0  00000+0 0  9991
2 33595   2.4660  83.1886 0003709 338.2734  47.5472  1.00270874 48402
